street,city,state,zip
6775 Spring Blvd,Moraga,CA,94556
8063 Valley Blvd,Orinda,CA,94563
9748 Cedar Way,Moraga,CA,94556
3863 Willow Blvd,Lafayette,CA,94549
2165 Maple Rd,Orinda,CA,94563
8615 Hillcrest Ter,Lafayette,CA,94549
620 Redwood Blvd,Lafayette,CA,94549
4274 Main Ter,Lafayette,CA,94549
7916 Sycamore Ave,Orinda,CA,94563
6034 Pine Dr,Moraga,CA,94556
5105 Sunset Dr,Orinda,CA,94563
8126 Birch Way,Lafayette,CA,94549
1319 Willow Blvd,Lafayette,CA,94549
1623 Canyon Pl,Moraga,CA,94556
385 Walnut Ln,Orinda,CA,94563
8803 Valley Ln,Orinda,CA,94563
8965 Sycamore Ter,Moraga,CA,94556
1772 Central Way,Lafayette,CA,94549
4304 Cedar Blvd,Moraga,CA,94556
5245 Maple Rd,Moraga,CA,94556
1059 Main Blvd,Orinda,CA,94563
7629 Pine Dr,Moraga,CA,94556
2223 Cedar Blvd,Moraga,CA,94556
3479 Pine Ct,Lafayette,CA,94549
3142 Canyon St,Moraga,CA,94556
9967 Buena Vista Ln,Moraga,CA,94556
9685 Cedar Ct,Orinda,CA,94563
9444 Meadow Ave,Lafayette,CA,94549
7904 Redwood Way,Orinda,CA,94563
1878 Maple Ter,Orinda,CA,94563
4402 Birch Ave,Orinda,CA,94563
1204 Buena Vista Way,Lafayette,CA,94549
158 Central Rd,Lafayette,CA,94549
4439 Main Rd,Orinda,CA,94563
6541 Highland Dr,Moraga,CA,94556
4533 Cedar Ter,Moraga,CA,94556
6311 Hillcrest Rd,Orinda,CA,94563
4868 Sycamore Blvd,Lafayette,CA,94549
9613 Birch St,Orinda,CA,94563
6322 Canyon Ave,Orinda,CA,94563
8504 Oak Ter,Orinda,CA,94563
4889 Highland Way,Orinda,CA,94563
4171 Buena Vista Pl,Orinda,CA,94563
5952 Walnut Way,Moraga,CA,94556
1724 Maple Dr,Orinda,CA,94563
8405 Spring Ter,Lafayette,CA,94549
4107 Sunset St,Lafayette,CA,94549
1940 Elm Ct,Orinda,CA,94563
6538 Valley Ct,Orinda,CA,94563
6494 Spring Rd,Lafayette,CA,94549
9186 Maple Way,Moraga,CA,94556
741 Spring Ave,Lafayette,CA,94549
8412 Valley Way,Orinda,CA,94563
5667 Highland Ct,Lafayette,CA,94549
3755 Canyon Rd,Orinda,CA,94563
9277 Pine Ct,Orinda,CA,94563
638 Valley St,Lafayette,CA,94549
8821 Maple Ave,Moraga,CA,94556
6760 Willow Ave,Orinda,CA,94563
2839 Canyon Ct,Moraga,CA,94556
2663 Elm Dr,Lafayette,CA,94549
1560 Canyon Ave,Lafayette,CA,94549
1225 Cedar Way,Orinda,CA,94563
3152 Oak Way,Orinda,CA,94563
8792 Birch Way,Moraga,CA,94556
891 Canyon Blvd,Moraga,CA,94556
3429 Maple St,Moraga,CA,94556
445 Highland Ave,Lafayette,CA,94549
509 Elm St,Moraga,CA,94556
1947 Buena Vista Ave,Lafayette,CA,94549
4541 Spring Ct,Moraga,CA,94556
4310 Central Rd,Orinda,CA,94563
3891 Redwood Blvd,Moraga,CA,94556
9634 Main Ct,Orinda,CA,94563
9631 Hillcrest Dr,Moraga,CA,94556
3458 Maple Ave,Moraga,CA,94556
8154 Sycamore Rd,Lafayette,CA,94549
6216 Pine Rd,Moraga,CA,94556
1868 Valley Ct,Orinda,CA,94563
1638 Walnut Ave,Lafayette,CA,94549
6208 Highland Pl,Orinda,CA,94563
3543 Main Blvd,Orinda,CA,94563
9663 Redwood Ln,Lafayette,CA,94549
9220 Sycamore Dr,Lafayette,CA,94549
9141 Main Way,Lafayette,CA,94549
2566 Willow Rd,Orinda,CA,94563
2005 Walnut St,Moraga,CA,94556
2022 Valley Rd,Moraga,CA,94556
3285 Maple Ct,Orinda,CA,94563
816 Willow Ave,Moraga,CA,94556
2087 Oak Ln,Moraga,CA,94556
3182 Valley Blvd,Orinda,CA,94563
9342 Birch Dr,Moraga,CA,94556
4441 Pine Ln,Orinda,CA,94563
2100 Sunset Dr,Lafayette,CA,94549
6215 Elm Ln,Orinda,CA,94563
392 Canyon Blvd,Orinda,CA,94563
3097 Walnut Ln,Moraga,CA,94556
8005 Redwood Ave,Moraga,CA,94556
1133 Sycamore Dr,Lafayette,CA,94549
